{
    "links": {
        "self": "http://www.neowsapp.com/rest/v1/neo/3395960?api_key=iIulBulltgU6a56xZRHN4H3l9WmuAYTsLGpBGhQ2"
    },
    "id": "3395960",
    "neo_reference_id": "3395960",
    "name": "(2007 WT3)",
    "designation": "2007 WT3",
    "nasa_jpl_url": "http://ssd.jpl.nasa.gov/sbdb.cgi?sstr=3395960",
    "absolute_magnitude_h": 24.2,
    "estimated_diameter": {
        "kilometers": {
            "estimated_diameter_min": 0.0384197891,
            "estimated_diameter_max": 0.0859092601
        },
        "meters": {
            "estimated_diameter_min": 38.4197891064,
            "estimated_diameter_max": 85.9092601232
        },
        "miles": {
            "estimated_diameter_min": 0.0238729428,
            "estimated_diameter_max": 0.0533815229
        },
        "feet": {
            "estimated_diameter_min": 126.0491808919,
            "estimated_diameter_max": 281.8545369825
        }
    },
    "is_potentially_hazardous_asteroid": false,
    "close_approach_data": [
        {
            "close_approach_date": "2007-11-10",
            "close_approach_date_full": "2007-Nov-10 16:02",
            "epoch_date_close_approach": 1194710520000,
            "relative_velocity": {
                "kilometers_per_second": "20.267644533",
                "kilometers_per_hour": "72963.5203186373",
                "miles_per_hour": "45336.6940557666"
            },
            "miss_distance": {
                "astronomical": "0.0092105154",
                "lunar": "3.5828904906",
                "kilometers": "1377873.485442198",
                "miles": "856170.8826824124"
            },
            "orbiting_body": "Moon"
        },
        {
            "close_approach_date": "2007-11-10",
            "close_approach_date_full": "2007-Nov-10 22:21",
            "epoch_date_close_approach": 1194733260000,
            "relative_velocity": {
                "kilometers_per_second": "20.2858019325",
                "kilometers_per_hour": "73028.8869571505",
                "miles_per_hour": "45377.3103429028"
            },
            "miss_distance": {
                "astronomical": "0.0092402338",
                "lunar": "3.5944509482",
                "kilometers": "1382319.294782006",
                "miles": "858933.3805074428"
            },
            "orbiting_body": "Earth"
        }
    ],
    "orbital_data": {
        "orbit_id": "8",
        "orbit_determination_date": "2017-04-06 09:05:03",
        "first_observation_date": "2007-11-18",
        "last_observation_date": "2007-11-30",
        "data_arc_in_days": 12,
        "observations_used": 18,
        "orbit_uncertainty": "9",
        "minimum_orbit_intersection": ".00223055",
        "jupiter_tisserand_invariant": "3.135",
        "epoch_osculation": "2454424.5",
        "eccentricity": ".7219513662257074",
        "semi_major_axis": "2.357445056585269",
        "inclination": "5.170255441704042",
        "ascending_node_longitude": "227.1916856294612",
        "orbital_period": "1322.089318415152",
        "perihelion_distance": ".6554843771814938",
        "perihelion_argument": "102.6365399638607",
        "aphelion_distance": "4.059405735989043",
        "perihelion_time": "2454371.764402868740",
        "mean_anomaly": "14.35970679349528",
        "mean_motion": ".2722962775552473",
        "equinox": "J2000",
        "orbit_class": {
            "orbit_class_type": "APO",
            "orbit_class_description": "Near-Earth asteroid orbits which cross the Earth’s orbit similar to that of 1862 Apollo",
            "orbit_class_range": "a (semi-major axis) > 1.0 AU; q (perihelion) < 1.017 AU"
        }
    },
    "is_sentry_object": false
}